{"type": "FeatureCollection", "features": [ {"type": "Feature", "properties": {"norad_id": 54234, "name": "NOAA 21 (JPSS-2)", "group": "weather", "lat": -47.6976773541708, "lon": -53.433047700112965, "alt_km": 833.1034366467393, "timestamp": "2025-12-26T16:33:55.230594+00:00", "meta": {"OBJECT_NAME": "NOAA 21 (JPSS-2)", "OBJECT_ID": "2022-150A", "EPOCH": "2025-12-26T04:57:05.420736", "MEAN_MOTION": 14.19527818, "ECCENTRICITY": 0.00015916, "INCLINATION": 98.7479, "RA_OF_ASC_NODE": 296.3476, "ARG_OF_PERICENTER": 10.0165, "MEAN_ANOMALY": 350.1043, "EPHEMERIS_TYPE": 0, "CLASSIFICATION_TYPE": "U", "NORAD_CAT_ID": 54234, "ELEMENT_SET_NO": 999, "REV_AT_EPOCH": 16200, "BSTAR": 7.1886864e-05, "MEAN_MOTION_DOT": 1.08e-06, "MEAN_MOTION_DDOT": 0}, "tle": {"line1": "1 54234U 22150A   25360.20631274  .00000108  00000+0  71887-4 0  9992", "line2": "2 54234  98.7479 296.3476 0001591  10.0165 350.1043 14.19527818162001"}}, "geometry": {"type": "Point", "coordinates": [-53.433047700112965, -47.6976773541708]}}, {"type": "Feature", "properties": {"norad_id": 54743, "name": "METEOSAT-12 (MTG-I1)", "group": "weather", "lat": -0.47974772945424904, "lon": -16.399738182597275, "alt_km": 35784.5989643235, "timestamp": "2025-12-26T16:33:55.230605+00:00", "meta": {"OBJECT_NAME": "METEOSAT-12 (MTG-I1)", "OBJECT_ID": "2022-170C", "EPOCH": "2025-12-26T04:28:15.278016", "MEAN_MOTION": 1.00270913, "ECCENTRICITY": 0.00017027, "INCLINATION": 0.7008, "RA_OF_ASC_NODE": 25.8252, "ARG_OF_PERICENTER": 241.9136, "MEAN_ANOMALY": 253.9358, "EPHEMERIS_TYPE": 0, "CLASSIFICATION_TYPE": "U", "NORAD_CAT_ID": 54743, "ELEMENT_SET_NO": 999, "REV_AT_EPOCH": 1124, "BSTAR": 0, "MEAN_MOTION_DOT": 1.4e-07, "MEAN_MOTION_DDOT": 0}, "tle": {"line1": "1 54743U 22170C   25360.18628794  .00000014  00000+0  00000+0 0  9999", "line2": "2 54743   0.7008  25.8252 0001702 241.9136 253.9358  1.00270913 11246"}}, "geometry": {"type": "Point", "coordinates": [-16.399738182597275, -0.47974772945424904]}}, {"type": "Feature", "properties": {"norad_id": 55973, "name": "TIANMU-1 03", "group": "weather", "lat": -33.84607778311107, "lon": -21.34140186151846, "alt_km": 450.905267515318, "timestamp": "2025-12-26T16:33:55.230615+00:00", "meta": {"OBJECT_NAME": "TIANMU-1 03", "OBJECT_ID": "2023-039A", "EPOCH": "2025-12-26T06:17:26.607264", "MEAN_MOTION": 15.4132082, "ECCENTRICITY": 0.00037083, "INCLINATION": 97.5115, "RA_OF_ASC_NODE": 163.2949, "ARG_OF_PERICENTER": 21.3489, "MEAN_ANOMALY": 338.7911, "EPHEMERIS_TYPE": 0, "CLASSIFICATION_TYPE": "U", "NORAD_CAT_ID": 55973, "ELEMENT_SET_NO": 999, "REV_AT_EPOCH": 15414, "BSTAR": 0.00039445158, "MEAN_MOTION_DOT": 0.00016368, "MEAN_MOTION_DDOT": 0}, "tle": {"line1": "1 55973U 23039A   25360.26211351  .00016368  00000+0  39445-3 0  9994", "line2": "2 55973  97.5115 163.2949 0003708  21.3489 338.7911 15.41320820154141"}}, "geometry": {"type": "Point", "coordinates": [-21.34140186151846, -33.84607778311107]}}, {"type": "Feature", "properties": {"norad_id": 55974, "name": "TIANMU-1 04", "group": "weather", "lat": -14.88910666098763, "lon": 164.92930577330995, "alt_km": 443.3759259884682, "timestamp": "2025-12-26T16:33:55.230625+00:00", "meta": {"OBJECT_NAME": "TIANMU-1 04", "OBJECT_ID": "2023-039B", "EPOCH": "2025-12-26T07:17:01.401216", "MEAN_MOTION": 15.4166669, "ECCENTRICITY": 0.000431, "INCLINATION": 97.5047, "RA_OF_ASC_NODE": 162.5231, "ARG_OF_PERICENTER": 14.2534, "MEAN_ANOMALY": 345.8833, "EPHEMERIS_TYPE": 0, "CLASSIFICATION_TYPE": "U", "NORAD_CAT_ID": 55974, "ELEMENT_SET_NO": 999, "REV_AT_EPOCH": 15415, "BSTAR": 0.00038424967, "MEAN_MOTION_DOT": 0.00016128, "MEAN_MOTION_DDOT": 0}, "tle": {"line1": "1 55974U 23039B   25360.30348844  .00016128  00000+0  38425-3 0  9999", "line2": "2 55974  97.5047 162.5231 0004310  14.2534 345.8833 15.41666690154155"}}, "geometry": {"type": "Point", "coordinates": [164.92930577330995, -14.88910666098763]}}, {"type": "Feature", "properties": {"norad_id": 55975, "name": "TIANMU-1 05", "group": "weather", "lat": -2.335757724080881, "lon": 163.72181001258215, "alt_km": 443.72850582511364, "timestamp": "2025-12-26T16:33:55.230681+00:00", "meta": {"OBJECT_NAME": "TIANMU-1 05", "OBJECT_ID": "2023-039C", "EPOCH": "2025-12-26T07:13:35.808960", "MEAN_MOTION": 15.41279063, "ECCENTRICITY": 0.00038805, "INCLINATION": 97.5094, "RA_OF_ASC_NODE": 163.0135, "ARG_OF_PERICENTER": 40.6921, "MEAN_ANOMALY": 319.4615, "EPHEMERIS_TYPE": 0, "CLASSIFICATION_TYPE": "U", "NORAD_CAT_ID": 55975, "ELEMENT_SET_NO": 999, "REV_AT_EPOCH": 15413, "BSTAR": 0.00038330672, "MEAN_MOTION_DOT": 0.00015881, "MEAN_MOTION_DDOT": 0}, "tle": {"line1": "1 55975U 23039C   25360.30110890  .00015881  00000+0  38331-3 0  9999", "line2": "2 55975  97.5094 163.0135 0003880  40.6921 319.4615 15.41279063154138"}}, "geometry": {"type": "Point", "coordinates": [163.72181001258215, -2.335757724080881]}}, {"type": "Feature", "properties": {"norad_id": 55976, "name": "TIANMU-1 06", "group": "weather", "lat": -24.273662031519578, "lon": 167.30108409970177, "alt_km": 445.1384471659894, "timestamp": "2025-12-26T16:33:55.230691+00:00", "meta": {"OBJECT_NAME": "TIANMU-1 06", "OBJECT_ID": "2023-039D", "EPOCH": "2025-12-26T05:46:02.385696", "MEAN_MOTION": 15.41715236, "ECCENTRICITY": 0.00041201, "INCLINATION": 97.5104, "RA_OF_ASC_NODE": 163.4273, "ARG_OF_PERICENTER": 34.7236, "MEAN_ANOMALY": 325.4279, "EPHEMERIS_TYPE": 0, "CLASSIFICATION_TYPE": "U", "NORAD_CAT_ID": 55976, "ELEMENT_SET_NO": 999, "REV_AT_EPOCH": 15414, "BSTAR": 0.00038247796, "MEAN_MOTION_DOT": 0.00016079, "MEAN_MOTION_DDOT": 0}, "tle": {"line1": "1 55976U 23039D   25360.24030539  .00016079  00000+0  38248-3 0  9991", "line2": "2 55976  97.5104 163.4273 0004120  34.7236 325.4279 15.41715236154140"}}, "geometry": {"type": "Point", "coordinates": [167.30108409970177, -24.273662031519578]}}, {"type": "Feature", "properties": {"norad_id": 56232, "name": "FENGYUN 3G", "group": "weather", "lat": 37.46378771652949, "lon": -164.47098447383445, "alt_km": 406.4712873021399, "timestamp": "2025-12-26T16:33:55.230701+00:00", "meta": {"OBJECT_NAME": "FENGYUN 3G", "OBJECT_ID": "2023-055A", "EPOCH": "2025-12-26T07:04:09.582240", "MEAN_MOTION": 15.52123903, "ECCENTRICITY": 0.00039466, "INCLINATION": 49.9929, "RA_OF_ASC_NODE": 157.5032, "ARG_OF_PERICENTER": 294.3458, "MEAN_ANOMALY": 65.7096, "EPHEMERIS_TYPE": 0, "CLASSIFICATION_TYPE": "U", "NORAD_CAT_ID": 56232, "ELEMENT_SET_NO": 999, "REV_AT_EPOCH": 15313, "BSTAR": 0.00047672624, "MEAN_MOTION_DOT": 0.0002904, "MEAN_MOTION_DDOT": 0}, "tle": {"line1": "1 56232U 23055A   25360.29455535  .00029040  00000+0  47673-3 0  9991", "line2": "2 56232  49.9929 157.5032 0003946 294.3458  65.7096 15.52123903153139"}}, "geometry": {"type": "Point", "coordinates": [-164.47098447383445, 37.46378771652949]}}, {"type": "Feature", "properties": {"norad_id": 57166, "name": "METEOR-M2 3", "group": "weather", "lat": 79.41091149004336, "lon": -0.3986598661993228, "alt_km": 805.4883863890072, "timestamp": "2025-12-26T16:33:55.230712+00:00", "meta": {"OBJECT_NAME": "METEOR-M2 3", "OBJECT_ID": "2023-091A", "EPOCH": "2025-12-26T07:44:29.440608", "MEAN_MOTION": 14.24027662, "ECCENTRICITY": 0.00031963, "INCLINATION": 98.636, "RA_OF_ASC_NODE": 53.6235, "ARG_OF_PERICENTER": 326.006, "MEAN_ANOMALY": 34.0914, "EPHEMERIS_TYPE": 0, "CLASSIFICATION_TYPE": "U", "NORAD_CAT_ID": 57166, "ELEMENT_SET_NO": 999, "REV_AT_EPOCH": 12991, "BSTAR": 1.9351232e-05, "MEAN_MOTION_DOT": 1e-08, "MEAN_MOTION_DDOT": 0}, "tle": {"line1": "1 57166U 23091A   25360.32256297  .00000001  00000+0  19351-4 0  9995", "line2": "2 57166  98.6360  53.6235 0003196 326.0060  34.0914 14.24027662129916"}}, "geometry": {"type": "Point", "coordinates": [-0.3986598661993228, 79.41091149004336]}}, {"type": "Feature", "properties": {"norad_id": 57399, "name": "TIANMU-1 07", "group": "weather", "lat": 82.40682357104144, "lon": -56.08570009809755, "alt_km": 471.221876020285, "timestamp": "2025-12-26T16:33:55.230721+00:00", "meta": {"OBJECT_NAME": "TIANMU-1 07", "OBJECT_ID": "2023-101A", "EPOCH": "2025-12-26T06:44:08.128032", "MEAN_MOTION": 15.28263322, "ECCENTRICITY": 0.00049204, "INCLINATION": 97.2856, "RA_OF_ASC_NODE": 49.8316, "ARG_OF_PERICENTER": 46.5698, "MEAN_ANOMALY": 313.5951, "EPHEMERIS_TYPE": 0, "CLASSIFICATION_TYPE": "U", "NORAD_CAT_ID": 57399, "ELEMENT_SET_NO": 999, "REV_AT_EPOCH": 13522, "BSTAR": 0.00027916336, "MEAN_MOTION_DOT": 7.617e-05, "MEAN_MOTION_DDOT": 0}, "tle": {"line1": "1 57399U 23101A   25360.28064963  .00007617  00000+0  27916-3 0  9992", "line2": "2 57399  97.2856  49.8316 0004920  46.5698 313.5951 15.28263322135220"}}, "geometry": {"type": "Point", "coordinates": [-56.08570009809755, 82.40682357104144]}}, {"type": "Feature", "properties": {"norad_id": 57400, "name": "TIANMU-1 08", "group": "weather", "lat": -82.16643396025142, "lon": 118.42690442943967, "alt_km": 491.5002804226333, "timestamp": "2025-12-26T16:33:55.230731+00:00", "meta": {"OBJECT_NAME": "TIANMU-1 08", "OBJECT_ID": "2023-101B", "EPOCH": "2025-12-26T05:56:45.811680", "MEAN_MOTION": 15.28244147, "ECCENTRICITY": 0.00068679, "INCLINATION": 97.2845, "RA_OF_ASC_NODE": 49.595, "ARG_OF_PERICENTER": 45.3763, "MEAN_ANOMALY": 314.8036, "EPHEMERIS_TYPE": 0, "CLASSIFICATION_TYPE": "U", "NORAD_CAT_ID": 57400, "ELEMENT_SET_NO": 999, "REV_AT_EPOCH": 13521, "BSTAR": 0.00026338475, "MEAN_MOTION_DOT": 7.18e-05, "MEAN_MOTION_DDOT": 0}, "tle": {"line1": "1 57400U 23101B   25360.24775245  .00007180  00000+0  26338-3 0  9995", "line2": "2 57400  97.2845  49.5950 0006867  45.3763 314.8036 15.28244147135215"}}, "geometry": {"type": "Point", "coordinates": [118.42690442943967, -82.16643396025142]}}]}